{"type": "FeatureCollection", "features": [{"type": "Feature", "properties": {"district": 6}, "geometry": {"type": "MultiPolygon", "coordinates": [[[[-122.420342001, 37.863203001], [-122.420137, 37.863155], [-122.420094, 37.863198], [-122.420041999, 37.863179], [-122.420023, 37.863193], [-122.419865, 37.863141], [-122.419727, 37.863027], [-122.419446, 37.862887999], [-122.419327, 37.862921999], [-122.418941, 37.862564], [-122.418860001, 37.862245], [-122.418830999, 37.862245], [-122.418735999, 37.861959001], [-122.418774, 37.861864001], [-122.418778999, 37.861673], [-122.419394, 37.861048], [-122.419455999, 37.860948], [-122.419722, 37.860915], [-122.420342001, 37.863203001]]], [[[-122.331536, 37.786942], [-122.327917, 37.781202], [-122.331601999, 37.781404], [-122.332263001, 37.782082001], [-122.332348, 37.78237], [-122.331536, 37.786942]]], [[[-122.367481, 37.830127], [-122.367448, 37.829472], [-122.367217, 37.829537], [-122.367229, 37.829737], [-122.367237, 37.829875], [-122.367123, 37.829886], [-122.366966, 37.829558], [-122.366811, 37.829639], [-122.366865, 37.829966], [-122.366717, 37.829966], [-122.366628, 37.829703], [-122.366263, 37.829821], [-122.366669, 37.830696], [-122.366481, 37.830827], [-122.365481, 37.829027], [-122.36589, 37.828925], [-122.366235, 37.829483], [-122.366458, 37.829392], [-122.366364, 37.82908], [-122.366567, 37.829037], [-122.366669, 37.829354], [-122.366909001, 37.829242], [-122.366845, 37.828973], [-122.366946, 37.828897], [-122.367034, 37.829214], [-122.367163, 37.829193], [-122.367081, 37.828627], [-122.366081001, 37.827227], [-122.363881, 37.823927], [-122.362980999, 37.822527], [-122.363101, 37.821984], [-122.361972, 37.821563], [-122.361845, 37.821515], [-122.36188, 37.82142], [-122.361969, 37.821179], [-122.363160999, 37.821532], [-122.363351, 37.821543], [-122.363493999, 37.821103], [-122.36329, 37.821103], [-122.362111, 37.820795], [-122.3622, 37.820555], [-122.363581, 37.820888], [-122.363777, 37.820399], [-122.362372999, 37.820088], [-122.362462001, 37.819849], [-122.364022, 37.820077], [-122.364131, 37.819721], [-122.364180999, 37.819727], [-122.364056, 37.818979], [-122.36501, 37.818481], [-122.364841, 37.818272], [-122.364011999, 37.818716], [-122.363996001, 37.81862], [-122.364719, 37.81825], [-122.364516, 37.818068], [-122.364681, 37.817927], [-122.365281, 37.818527], [-122.3691, 37.816881], [-122.371081, 37.816027], [-122.367681002, 37.812428001], [-122.359181003, 37.815026999], [-122.358581003, 37.814526999], [-122.359281002, 37.813726999], [-122.360881003, 37.812528], [-122.360581004, 37.811227999], [-122.361381002, 37.810128], [-122.362381001, 37.807227997], [-122.367381, 37.807727998], [-122.367881, 37.807927999], [-122.372800002, 37.811100001], [-122.372181002, 37.811628], [-122.371681003, 37.815128], [-122.372068, 37.815716], [-122.379381, 37.826827], [-122.379199, 37.827371], [-122.378808, 37.828544], [-122.3785, 37.829469], [-122.378180999, 37.830427], [-122.373281, 37.832427], [-122.368780999, 37.831227], [-122.367481, 37.830127]]], [[[-122.393818999, 37.793738], [-122.393181, 37.79323], [-122.392582, 37.793704001], [-122.392413999, 37.793811], [-122.392181, 37.793928], [-122.391982, 37.793872], [-122.391900105, 37.793800317], [-122.391876326, 37.793779502], [-122.391861652, 37.793766658], [-122.391589, 37.793528], [-122.391632876, 37.793495824], [-122.391724, 37.793429], [-122.391573474, 37.793302503], [-122.390847, 37.792692], [-122.388812455, 37.790981745], [-122.388808, 37.790978], [-122.38893, 37.79088], [-122.388616648, 37.790321287], [-122.388612, 37.790313], [-122.388054969, 37.790505931], [-122.388049, 37.790508], [-122.388012, 37.790431], [-122.388019128, 37.790428544], [-122.388020719, 37.790427995], [-122.388369, 37.790308], [-122.388287, 37.790161], [-122.388294538, 37.790158783], [-122.388312044, 37.790153635], [-122.388321, 37.790151], [-122.388244, 37.790007], [-122.388230265, 37.790000957], [-122.388219001, 37.789996], [-122.388082733, 37.790036022], [-122.388076, 37.790038], [-122.388058463, 37.790045008], [-122.387950619, 37.789830331], [-122.387602224, 37.789788654], [-122.387607, 37.789787], [-122.387418, 37.789439], [-122.387348, 37.789311], [-122.385347, 37.789791], [-122.385313, 37.789784], [-122.385292761, 37.789768431], [-122.385287, 37.789764], [-122.385106, 37.789317], [-122.385115, 37.789294], [-122.385142, 37.789278], [-122.385148, 37.78922], [-122.387188, 37.788774], [-122.38715381, 37.788639944], [-122.387048999, 37.788229], [-122.38527309, 37.788517709], [-122.385273009, 37.788517723], [-122.385259, 37.78852], [-122.38523, 37.78851], [-122.385213, 37.788491], [-122.385179564, 37.788356869], [-122.385131458, 37.788163896], [-122.385131438, 37.788163813], [-122.385126, 37.788142], [-122.385138, 37.788118], [-122.385162, 37.788105], [-122.387225, 37.787767], [-122.387381, 37.78772], [-122.387406553, 37.787249242], [-122.387406999, 37.787241], [-122.387253608, 37.787243379], [-122.387226918, 37.787243792], [-122.38702, 37.787247], [-122.384544, 37.7874], [-122.384525279, 37.787391608], [-122.384525103, 37.787391529], [-122.384515, 37.787387], [-122.384499, 37.787361], [-122.384342, 37.785735], [-122.38436, 37.78571], [-122.384388018, 37.785698792], [-122.384389698, 37.78569812], [-122.384390001, 37.785698], [-122.384391234, 37.785697924], [-122.38564236, 37.78562148], [-122.387336, 37.785518], [-122.387454, 37.785495], [-122.387565, 37.785458], [-122.387581, 37.785438], [-122.387595606, 37.785270607], [-122.387631, 37.784865], [-122.387557381, 37.784869373], [-122.387473, 37.78447], [-122.387517966, 37.784456919], [-122.387518085, 37.784456884], [-122.387583, 37.784438], [-122.387478481, 37.784326704], [-122.387419464, 37.78393024], [-122.387412202, 37.783893382], [-122.387409252, 37.783893554], [-122.387360447, 37.783347202], [-122.387696, 37.783279], [-122.387752, 37.783246], [-122.387776755, 37.782871705], [-122.387776761, 37.782871605], [-122.387777, 37.782868], [-122.387685872, 37.782842314], [-122.387663634, 37.782836045], [-122.387628, 37.782826], [-122.387525, 37.782797], [-122.387421001, 37.78279], [-122.387346886, 37.782794131], [-122.387177941, 37.782803548], [-122.387142273, 37.782805536], [-122.384748, 37.782939], [-122.38473, 37.782926], [-122.384727369, 37.782904947], [-122.384712, 37.782782], [-122.384708836, 37.782757713], [-122.384681, 37.782544], [-122.384696, 37.782529], [-122.384719, 37.782524], [-122.387567, 37.782342], [-122.387772717, 37.782279634], [-122.387788, 37.782275], [-122.387744059, 37.781994535], [-122.386070513, 37.782040913], [-122.386160126, 37.781875089], [-122.386153871, 37.781830367], [-122.386140559, 37.781735184], [-122.386140126, 37.781732089], [-122.385550127, 37.781763089], [-122.385529127, 37.78177909], [-122.385528023, 37.781778397], [-122.385486126, 37.781752089], [-122.385521126, 37.78171609], [-122.385530459, 37.78172177], [-122.385544126, 37.78173009], [-122.385549357, 37.78172978], [-122.386136127, 37.781695089], [-122.386135126, 37.781533089], [-122.386129531, 37.781411214], [-122.387015077, 37.78138189], [-122.387272587, 37.781366554], [-122.387301429, 37.781364836], [-122.387596515, 37.781341514], [-122.387620664, 37.781360965], [-122.387617472, 37.781326495], [-122.387584, 37.780965], [-122.387582, 37.780945], [-122.387541, 37.78051], [-122.387529, 37.780486], [-122.387527, 37.780467], [-122.387534, 37.780441], [-122.387502, 37.780093], [-122.387488, 37.780049], [-122.387486, 37.78003], [-122.387493, 37.77999], [-122.387465, 37.779693], [-122.387451, 37.779656], [-122.387379, 37.77966], [-122.387387, 37.77975], [-122.387377, 37.779638], [-122.387449, 37.779634], [-122.387456, 37.779596], [-122.387431001, 37.779325], [-122.387417, 37.779288], [-122.387415, 37.779269], [-122.387423, 37.779236], [-122.387397, 37.778965], [-122.387384, 37.778933], [-122.387368809, 37.778933893], [-122.387382, 37.778914], [-122.38739, 37.77888], [-122.387367, 37.77863], [-122.387353, 37.778605], [-122.387286, 37.778609], [-122.387288, 37.778681], [-122.387285001, 37.77859], [-122.387352, 37.778586], [-122.387359, 37.77856], [-122.387353617, 37.778500194], [-122.387349763, 37.778457377], [-122.38721929, 37.778414027], [-122.38522173, 37.778517405], [-122.385293071, 37.778385834], [-122.386922034, 37.778282457], [-122.386933925, 37.778113295], [-122.38723118, 37.778113295], [-122.387373863, 37.778113295], [-122.38762356, 37.77804751], [-122.388051607, 37.777850153], [-122.38817051, 37.777934734], [-122.390191851, 37.777182895], [-122.390049169, 37.776929147], [-122.390263193, 37.776806973], [-122.390392, 37.77696], [-122.390215, 37.776723], [-122.390074, 37.776762], [-122.389918377, 37.776562622], [-122.389872376, 37.776565623], [-122.389823254, 37.776675399], [-122.387754351, 37.776778778], [-122.387611669, 37.776788177], [-122.38753567, 37.776784177], [-122.38747367, 37.776769177], [-122.38741267, 37.776742177], [-122.38735667, 37.776701176], [-122.387309741, 37.776613438], [-122.387283741, 37.776552437], [-122.387278741, 37.776487437], [-122.387278742, 37.776337067], [-122.387122068, 37.776325358], [-122.387103, 37.776326], [-122.387080396, 37.77615083], [-122.387079509, 37.776141465], [-122.38524551, 37.776346465], [-122.38501751, 37.776372465], [-122.385013993, 37.776371089], [-122.384994511, 37.776363465], [-122.384983509, 37.776345465], [-122.38499777, 37.7763337], [-122.38502351, 37.776312465], [-122.384879351, 37.775622491], [-122.384828, 37.775394], [-122.384881, 37.775389], [-122.384877, 37.77533], [-122.386996, 37.775082], [-122.38692516, 37.774350313], [-122.386923, 37.774328], [-122.381827748, 37.774614227], [-122.381814, 37.774615], [-122.381455999, 37.771917], [-122.381499421, 37.771936199], [-122.38325996, 37.772714632], [-122.384678344, 37.773341772], [-122.384706, 37.773354], [-122.384782, 37.773372], [-122.38486, 37.773376], [-122.384863661, 37.773375801], [-122.38676, 37.773273], [-122.386573001, 37.772839], [-122.386581, 37.772816], [-122.386603, 37.7728], [-122.386708141, 37.772773254], [-122.386717, 37.772771], [-122.386692, 37.772707], [-122.386683001, 37.772631], [-122.386688001, 37.77258], [-122.386664538, 37.772495865], [-122.386659, 37.772476], [-122.386671999, 37.772455], [-122.386714, 37.77244], [-122.386690893, 37.772388504], [-122.386679, 37.772362], [-122.386655654, 37.772366806], [-122.386645, 37.772369], [-122.386634818, 37.772341393], [-122.386627846, 37.772322488], [-122.386618968, 37.772298415], [-122.386603111, 37.772255419], [-122.386592999, 37.772228], [-122.386559, 37.772089], [-122.386547812, 37.772005969], [-122.386539999, 37.771948], [-122.386449931, 37.771943542], [-122.386439, 37.771943], [-122.386447253, 37.771834063], [-122.386459, 37.771679], [-122.386414, 37.771677], [-122.386417, 37.771634], [-122.386369, 37.77163], [-122.38637, 37.771591], [-122.386346, 37.771591], [-122.386349, 37.771562], [-122.386374, 37.771562], [-122.386384, 37.771459], [-122.386290258, 37.771449363], [-122.386277, 37.771448], [-122.386285124, 37.771409185], [-122.386286, 37.771405], [-122.386273171, 37.771401879], [-122.386249, 37.771396], [-122.386214, 37.771392], [-122.386174576, 37.771346944], [-122.386172, 37.771344], [-122.386158919, 37.771340981], [-122.386133, 37.771335], [-122.386106, 37.771316], [-122.38609, 37.771287], [-122.386113554, 37.771277488], [-122.386142001, 37.771266], [-122.386141346, 37.771265029], [-122.386086, 37.771183], [-122.386043, 37.771201], [-122.386011, 37.771188], [-122.386041, 37.771174], [-122.385976545, 37.771094198], [-122.385968634, 37.771084404], [-122.385894, 37.770992], [-122.385917112, 37.770834663], [-122.38592, 37.770815], [-122.3859001, 37.770782164], [-122.385846976, 37.770694508], [-122.38584, 37.770683], [-122.385825604, 37.770678618], [-122.385817, 37.770676], [-122.385794, 37.770682], [-122.385789349, 37.770688976], [-122.385782, 37.7707], [-122.385783192, 37.770740941], [-122.385798, 37.77125], [-122.385786792, 37.771308079], [-122.385622, 37.772162], [-122.385554, 37.772154], [-122.385681, 37.771444], [-122.385515, 37.77143], [-122.385468, 37.771531], [-122.385336, 37.771652], [-122.385291616, 37.771636022], [-122.385286, 37.771634], [-122.385684, 37.770764], [-122.385720001, 37.770637], [-122.38572307, 37.770602462], [-122.385724, 37.770592], [-122.385559, 37.770637], [-122.383176479, 37.769717291], [-122.383155, 37.769709], [-122.383376, 37.769333], [-122.385569, 37.77018], [-122.385493, 37.769991], [-122.385477961, 37.769862329], [-122.385475001, 37.769837], [-122.385019, 37.768857], [-122.385009682, 37.768858864], [-122.384894, 37.768882], [-122.384788, 37.768657], [-122.385006, 37.768586], [-122.385007, 37.76853], [-122.385038, 37.768497], [-122.385008, 37.768429], [-122.38508, 37.768406], [-122.385043001, 37.768341], [-122.385155615, 37.768300459], [-122.385168, 37.768296], [-122.385164895, 37.76827534], [-122.385145, 37.768143], [-122.385267423, 37.767725556], [-122.385413788, 37.767248559], [-122.385823, 37.767255], [-122.385933, 37.767027], [-122.386614999, 37.765668], [-122.387606, 37.764483], [-122.387917, 37.764379], [-122.388618, 37.764335999], [-122.388681, 37.764332001], [-122.388731001, 37.764329], [-122.388904999, 37.764319], [-122.389852, 37.76426], [-122.390817, 37.764201], [-122.391781, 37.764141], [-122.392485999, 37.764098001], [-122.392610001, 37.76409], [-122.392714001, 37.764084], [-122.392729, 37.764167], [-122.393005001, 37.764782001], [-122.39334, 37.765356], [-122.39351, 37.765585], [-122.393765, 37.765929], [-122.393919, 37.766074], [-122.394299, 37.766435], [-122.394473001, 37.766582], [-122.394644, 37.766571], [-122.394837001, 37.766559], [-122.395060999, 37.766545], [-122.396896999, 37.76643], [-122.397862999, 37.766369], [-122.398503999, 37.766329], [-122.398825, 37.766309], [-122.399141, 37.766289], [-122.399761, 37.76625], [-122.400755, 37.766190001], [-122.401721, 37.766133], [-122.40249, 37.766087], [-122.402685, 37.766075], [-122.403643, 37.766017], [-122.404623, 37.765958], [-122.404836, 37.765945], [-122.404952, 37.765937999], [-122.405199999, 37.765923], [-122.405585, 37.765899999], [-122.406553, 37.765842], [-122.407533999, 37.765783], [-122.407685, 37.767082001], [-122.407813, 37.768354], [-122.407841, 37.768774], [-122.407848001, 37.768881], [-122.407853, 37.768951], [-122.407874001, 37.768991], [-122.408007, 37.769244], [-122.408551001, 37.769252], [-122.409257999, 37.769221], [-122.40954, 37.769235001], [-122.410755, 37.769422001], [-122.410835, 37.769417], [-122.410931, 37.769411], [-122.410881001, 37.769322], [-122.410831, 37.769232], [-122.410814, 37.769053], [-122.411515, 37.768833], [-122.411759, 37.768693], [-122.411935, 37.768591], [-122.412217, 37.76837], [-122.412424001, 37.768073999], [-122.413341, 37.768023], [-122.413396, 37.768671], [-122.413427, 37.769036], [-122.413389, 37.769459], [-122.413385, 37.769502001], [-122.413466001, 37.769512], [-122.414121999, 37.769537], [-122.414748, 37.769559], [-122.414819, 37.769565], [-122.414899001, 37.769564], [-122.415487001, 37.769588999], [-122.415579, 37.769578], [-122.415748, 37.769586001], [-122.416801, 37.769657], [-122.417265999, 37.769711], [-122.417741, 37.769759], [-122.417788, 37.769761], [-122.417803, 37.769739], [-122.417805, 37.769719], [-122.418130001, 37.769806], [-122.419945, 37.769984999], [-122.420154999, 37.770002], [-122.420829, 37.770065], [-122.421251999, 37.770127], [-122.421422999, 37.770162001], [-122.421612, 37.770224], [-122.42173, 37.770259], [-122.422246, 37.770519], [-122.422439001, 37.770664], [-122.422443999, 37.770715001], [-122.422457, 37.770861], [-122.422584001, 37.770965], [-122.422718, 37.771096], [-122.422835, 37.771235], [-122.422965001, 37.771391], [-122.423072, 37.771563], [-122.423120999, 37.771657], [-122.423179001, 37.771785], [-122.42325, 37.771937], [-122.423402, 37.771975], [-122.42362, 37.772298], [-122.423684999, 37.772561], [-122.423714, 37.772701], [-122.423764001, 37.772956], [-122.423868, 37.772943], [-122.423962, 37.773409], [-122.424057, 37.773875], [-122.424144, 37.774342001], [-122.424035, 37.774355999], [-122.424007, 37.774359], [-122.422502, 37.774551], [-122.420859, 37.77476], [-122.420959999, 37.775232001], [-122.421053, 37.775695001], [-122.421148, 37.776159], [-122.419542, 37.776364], [-122.419405999, 37.776382], [-122.419523999, 37.776904], [-122.419616999, 37.777310001], [-122.419712, 37.77777], [-122.418138999, 37.777971], [-122.418227, 37.778489], [-122.416766, 37.778674999], [-122.41658, 37.778658], [-122.41497, 37.778862], [-122.414875, 37.778803], [-122.414782, 37.778744001], [-122.414721, 37.778791], [-122.413365, 37.779862001], [-122.412609, 37.780459], [-122.412548001, 37.780508], [-122.412492, 37.780552001], [-122.411985, 37.780952], [-122.411699999, 37.781177], [-122.411457, 37.781369], [-122.410391, 37.782211], [-122.410336, 37.782245], [-122.410271, 37.782306], [-122.410052, 37.782479], [-122.409184, 37.783164], [-122.409053, 37.783268], [-122.409002, 37.783308], [-122.408982001, 37.783324001], [-122.408931001, 37.783364], [-122.408688, 37.783556], [-122.40816, 37.783973], [-122.408104, 37.78402], [-122.407450999, 37.784604], [-122.406291, 37.785508], [-122.406062, 37.785757], [-122.404743, 37.786778001], [-122.403456001, 37.787776], [-122.402914, 37.788112], [-122.402807, 37.788197], [-122.402066, 37.788721], [-122.401974, 37.788835], [-122.401939, 37.788878], [-122.401749, 37.789029], [-122.401528, 37.789205], [-122.401479, 37.789244], [-122.401401999, 37.789297], [-122.401348, 37.789348001], [-122.400152, 37.79029], [-122.399896, 37.790493], [-122.399505, 37.790805], [-122.399255, 37.790997], [-122.399195, 37.791058], [-122.399122999, 37.791101], [-122.398369, 37.791695], [-122.398302, 37.791746], [-122.398235001, 37.7918], [-122.39749, 37.792387], [-122.397428001, 37.792442], [-122.397359, 37.792490001], [-122.396612, 37.793079], [-122.396546001, 37.793127], [-122.396315, 37.793337], [-122.395705, 37.793793], [-122.395655, 37.793831], [-122.39486, 37.794459], [-122.394748, 37.79448], [-122.393818999, 37.793738]]]]}}]}