    {
      "type": "Feature",
      "geometry": {
        "type": "MultiPolygon",
        "coordinates": [
          [
            [
              [-122.40371199999187, 37.784043999707194],
              [-122.40270800027392, 37.78325899990069],
              [-122.40046800018878, 37.78502999976972],
              [-122.39988699968373, 37.78455900043229],
              [-122.39945999980904, 37.78421400043673],
              [-122.39893000016711, 37.78378500043584],
              [-122.39794299955454, 37.782998000028165],
              [-122.39738599997831, 37.78255400007539],
              [-122.3968409995709, 37.782118999573875],
              [-122.39661299990239, 37.78193699997869],
              [-122.39646100000526, 37.78181500038305],
              [-122.39638000016735, 37.78175000025072],
              [-122.3958429996731, 37.781321000229944],
              [-122.39551800005283, 37.781061999732046],
              [-122.39506500057145, 37.78070100022091],
              [-122.39463100023191, 37.780354000426264],
              [-122.39429999993733, 37.78009000034983],
              [-122.39274999947901, 37.77885199978907],
              [-122.39328699973038, 37.778427000211565],
              [-122.39353699968115, 37.778229999593194],
              [-122.39385700034032, 37.77797700002861],
              [-122.39498099968228, 37.777088999979924],
              [-122.39720600011665, 37.775332000262615],
              [-122.3979690005133, 37.77594100028761],
              [-122.39875500023807, 37.77656799990938],
              [-122.40091399952762, 37.77486199975775],
              [-122.40098200024516, 37.77480899962393],
              [-122.40057000032944, 37.774480000050694],
              [-122.40021199957705, 37.77419500009305],
              [-122.39943300014635, 37.77357300000445],
              [-122.39951600019705, 37.77350699963789],
              [-122.39964799952793, 37.77340399975234],
              [-122.40165700030944, 37.77181700036523],
              [-122.40387800040297, 37.77006300027743],
              [-122.40408299972505, 37.76996899983373],
              [-122.40439099961604, 37.76975000012864],
              [-122.40498999944754, 37.76971499992365],
              [-122.40520300037058, 37.76970200008818],
              [-122.40540800025224, 37.769689999772275],
              [-122.40558899994181, 37.76968000026003],
              [-122.40584399996843, 37.76966500002409],
              [-122.4059390005741, 37.769659000295114],
              [-122.40621300047536, 37.76946300013261],
              [-122.40700100015842, 37.77005000013585],
              [-122.40758699953828, 37.769586000260034],
              [-122.40762299961686, 37.76955799998237],
              [-122.40763999957679, 37.769544999700884],
              [-122.40773900022478, 37.76946600018427],
              [-122.40789500023209, 37.76934299991101],
              [-122.40800700007466, 37.76924399995716],
              [-122.40843600020258, 37.769317999707376],
              [-122.40903500016421, 37.769792999593676],
              [-122.40973600056184, 37.770349000005766],
              [-122.41088599991679, 37.76944700005473],
              [-122.41090799997778, 37.76942900029767],
              [-122.41093100020761, 37.769410999642986],
              [-122.41095899969652, 37.76943300044438],
              [-122.41098900032163, 37.76945599978913],
              [-122.41248000022547, 37.770629999846435],
              [-122.41402700056663, 37.771863999964154],
              [-122.41439199964262, 37.77215799967324],
              [-122.41500199976375, 37.77264899973634],
              [-122.41556099974696, 37.77310099980599],
              [-122.41610400001355, 37.77353200036078],
              [-122.4165759997702, 37.77390600001707],
              [-122.41710400013055, 37.774324999635866],
              [-122.41751499960586, 37.77465100019064],
              [-122.4186589994612, 37.7755580003917],
              [-122.41870400041417, 37.77564499965146],
              [-122.41762899991866, 37.7764939998033],
              [-122.41750099989424, 37.7765410002872],
              [-122.417470999776, 37.7766179997396],
              [-122.41687800008602, 37.777085000022375],
              [-122.41639200017923, 37.777468999680124],
              [-122.41629199974827, 37.77749400006977],
              [-122.4162609996447, 37.77757199955736],
              [-122.4160090000015, 37.77777300037842],
              [-122.41483500018165, 37.778700999797074],
              [-122.41474099963443, 37.77871899986788],
              [-122.41472099964989, 37.77879100018861],
              [-122.41336499954906, 37.77986199970191],
              [-122.41260900005932, 37.780459000431726],
              [-122.41251199954603, 37.78047900027643],
              [-122.41249199995343, 37.780551999594785],
              [-122.41198499963546, 37.780952000114915],
              [-122.41170000055433, 37.78117700033902],
              [-122.41145700026198, 37.78136899955485],
              [-122.41039099977425, 37.782210999899995],
              [-122.4102920002116, 37.78223099961632],
              [-122.41027100024698, 37.78230600007615],
              [-122.41005200020982, 37.78247899999501],
              [-122.40918400048731, 37.78316400038246],
              [-122.40905300015069, 37.783268000276536],
              [-122.40895200033319, 37.78328799968144],
              [-122.40893099944846, 37.783364000223976],
              [-122.40868799976091, 37.783555999724726],
              [-122.40816000010435, 37.783972999832756],
              [-122.40806699975067, 37.783990999873076],
              [-122.40804199998205, 37.78406599971194],
              [-122.40742399954631, 37.78455199969732],
              [-122.4073370005528, 37.78456000042311],
              [-122.40732599976482, 37.784629999892665],
              [-122.40599999971887, 37.78567400035073],
              [-122.40597600033834, 37.785693000166916],
              [-122.40583100020682, 37.785743999673485],
              [-122.40582199961199, 37.78573700034616],
              [-122.40580699986937, 37.78572499982806],
              [-122.4052360004597, 37.78526499999607],
              [-122.40479499945762, 37.784908000368574],
              [-122.40426699942395, 37.78447899963783],
              [-122.40371199999187, 37.784043999707194]
            ]
          ]
        ]
      },
      "properties": {
        ":id": "row-zga5_xbxp_wavz",
        ":version": "rv-dhre.4pg3-htj9",
        ":created_at": "2023-10-17T18:30:10.955Z",
        ":updated_at": "2023-10-17T18:30:10.955Z",
        "nhood": "South of Market"
      }
    }